[{"OBJECT_NAME":"LEMUR-2-AMANDA-SVANTE","OBJECT_ID":"2021-034B","EPOCH":"2026-03-09T18:37:58.823328","MEAN_MOTION":15.28469003,"ECCENTRICITY":0.00027027,"INCLINATION":97.5829,"RA_OF_ASC_NODE":144.8625,"ARG_OF_PERICENTER":205.4721,"MEAN_ANOMALY":154.6385,"EPHEMERIS_TYPE":0,"CLASSIFICATION_TYPE":"U","NORAD_CAT_ID":48269,"ELEMENT_SET_NO":999,"REV_AT_EPOCH":26584,"BSTAR":0.0011134246,"MEAN_MOTION_DOT":0.00030872,"MEAN_MOTION_DDOT":0},{"OBJECT_NAME":"STARLINK-31842","OBJECT_ID":"2024-084U","EPOCH":"2026-03-09T07:22:46.745472","MEAN_MOTION":15.27578838,"ECCENTRICITY":0.00010905,"INCLINATION":43.0059,"RA_OF_ASC_NODE":40.5821,"ARG_OF_PERICENTER":258.4725,"MEAN_ANOMALY":101.6004,"EPHEMERIS_TYPE":0,"CLASSIFICATION_TYPE":"U","NORAD_CAT_ID":59672,"ELEMENT_SET_NO":999,"REV_AT_EPOCH":10435,"BSTAR":5.413736e-6,"MEAN_MOTION_DOT":-1.13e-6,"MEAN_MOTION_DDOT":0}]
